
# Worst residual: 9.47 km
# MJD 58676.000000 (2019 Jul 12  0:00)
S511443
1 99999U 00000    19193.49918769  .00000000  00000-0  00000-0 0  3603
2 99999 024.6886 016.7397 8148636 163.2527 178.5987 01.18587300    04

# Worst residual: 9.97 km
# MJD 58677.000000 (2019 Jul 13  0:00)
S511443
1 99999U 00000    19194.49918769  .00000000  00000-0  00000-0 0  3604
2 99999 024.6922 016.5797 8148620 163.5308 245.4782 01.18587078    09

# Worst residual: 9.77 km
# MJD 58678.000000 (2019 Jul 14  0:00)
S511443
1 99999U 00000    19195.49918769  .00000000  00000-0  00000-0 0  3605
2 99999 024.6892 016.4241 8148543 163.8023 312.3711 01.18593529    03

# Worst residual: 7.47 km
# MJD 58679.000000 (2019 Jul 15  0:00)
S511443
1 99999U 00000    19196.49918769  .00000000  00000-0  00000-0 0  3606
2 99999 024.6943 016.2646 8148111 164.0742 019.2651 01.18598588    05

# Worst residual: 9.34 km
# MJD 58680.000000 (2019 Jul 16  0:00)
S511443
1 99999U 00000    19197.49918769  .00000000  00000-0  00000-0 0  3607
2 99999 024.6913 016.1105 8148451 164.3396 086.1636 01.18594281    08

# Worst residual: 9.48 km
# MJD 58681.000000 (2019 Jul 17  0:00)
S511443
1 99999U 00000    19198.49918769  .00000000  00000-0  00000-0 0  3608
2 99999 024.6966 015.9492 8148533 164.6149 153.0587 01.18588657    01

# Worst residual: 8.96 km
# MJD 58682.000000 (2019 Jul 18  0:00)
S511443
1 99999U 00000    19199.49918769  .00000000  00000-0  00000-0 0  3609
2 99999 024.7011 015.7881 8148867 164.8917 219.9501 01.18590092    02

# Worst residual: 9.03 km
# MJD 58683.000000 (2019 Jul 19  0:00)
S511443
1 99999U 00000    19200.49918769  .00000000  00000-0  00000-0 0  3602
2 99999 024.6991 015.6305 8149397 165.1664 286.8381 01.18592580    03

# Worst residual: 7.90 km
# MJD 58684.000000 (2019 Jul 20  0:00)
S511443
1 99999U 00000    19201.49918769  .00000000  00000-0  00000-0 0  3603
2 99999 024.7001 015.4720 8149701 165.4398 353.7379 01.18598595    04

# Worst residual: 7.88 km
# MJD 58685.000000 (2019 Jul 21  0:00)
S511443
1 99999U 00000    19202.49918769  .00000000  00000-0  00000-0 0  3604
2 99999 024.7035 015.3129 8150069 165.7145 060.6261 01.18594911    07

# Worst residual: 10.17 km
# MJD 58686.000000 (2019 Jul 22  0:00)
S511443
1 99999U 00000    19203.49918769  .00000000  00000-0  00000-0 0  3605
2 99999 024.7010 015.1537 8150634 165.9935 127.5092 01.18588383    09

# Worst residual: 8.63 km
# MJD 58687.000000 (2019 Jul 23  0:00)
S511443
1 99999U 00000    19204.49918769  .00000000  00000-0  00000-0 0  3606
2 99999 024.7090 014.9910 8150113 166.2786 194.3829 01.18582006    05

# Worst residual: 9.63 km
# MJD 58688.000000 (2019 Jul 24  0:00)
S511443
1 99999U 00000    19205.49918769  .00000000  00000-0  00000-0 0  3607
2 99999 024.7090 014.8332 8150233 166.5549 261.2683 01.18587136    06

# Worst residual: 9.11 km
# MJD 58689.000000 (2019 Jul 25  0:00)
S511443
1 99999U 00000    19206.49918769  .00000000  00000-0  00000-0 0  3608
2 99999 024.7085 014.6726 8149861 166.8349 328.1506 01.18592671    08

# Worst residual: 7.52 km
# MJD 58690.000000 (2019 Jul 26  0:00)
S511443
1 99999U 00000    19207.49918769  .00000000  00000-0  00000-0 0  3609
2 99999 024.7099 014.5155 8149475 167.1033 035.0543 01.18598665    07

# Worst residual: 8.83 km
# MJD 58691.000000 (2019 Jul 27  0:00)
S511443
1 99999U 00000    19208.49918769  .00000000  00000-0  00000-0 0  3600
2 99999 024.7111 014.3571 8149483 167.3756 101.9449 01.18593043    08

# Worst residual: 8.84 km
# MJD 58692.000000 (2019 Jul 28  0:00)
S511443
1 99999U 00000    19209.49918769  .00000000  00000-0  00000-0 0  3601
2 99999 024.7151 014.1952 8149608 167.6538 168.8367 01.18588188    08

# Worst residual: 9.27 km
# MJD 58693.000000 (2019 Jul 29  0:00)
S511443
1 99999U 00000    19210.49918769  .00000000  00000-0  00000-0 0  3603
2 99999 024.7161 014.0366 8149871 167.9306 235.7166 01.18588869    02

# Worst residual: 9.35 km
# MJD 58694.000000 (2019 Jul 30  0:00)
S511443
1 99999U 00000    19211.49918769  .00000000  00000-0  00000-0 0  3604
2 99999 024.7158 013.8779 8150025 168.2053 302.6083 01.18593956    04

# Worst residual: 7.33 km
# MJD 58695.000000 (2019 Jul 31  0:00)
S511443
1 99999U 00000    19212.49918769  .00000000  00000-0  00000-0 0  3605
2 99999 024.7167 013.7192 8150273 168.4811 009.4936 01.18600020    01

# Worst residual: 9.13 km
# MJD 58696.000000 (2019 Aug  1  0:00)
S511443
1 99999U 00000    19213.49918769  .00000000  00000-0  00000-0 0  3606
2 99999 024.7118 013.5641 8150840 168.7517 076.3865 01.18594077    08

# Worst residual: 9.35 km
# MJD 58697.000000 (2019 Aug  2  0:00)
S511443
1 99999U 00000    19214.49918769  .00000000  00000-0  00000-0 0  3607
2 99999 024.7178 013.4017 8151040 169.0360 143.2588 01.18587566    04

# Worst residual: 8.95 km
# MJD 58698.000000 (2019 Aug  3  0:00)
S511443
1 99999U 00000    19215.49918769  .00000000  00000-0  00000-0 0  3608
2 99999 024.7226 013.2416 8150617 169.3181 210.1355 01.18582761    00

# Worst residual: 10.62 km
# MJD 58699.000000 (2019 Aug  4  0:00)
S511443
1 99999U 00000    19216.49918769  .00000000  00000-0  00000-0 0  3609
2 99999 024.7178 013.0806 8151125 169.5999 277.0128 01.18589123    00

# Worst residual: 8.37 km
# MJD 58700.000000 (2019 Aug  5  0:00)
S511443
1 99999U 00000    19217.49918769  .00000000  00000-0  00000-0 0  3600
2 99999 024.7210 012.9193 8150780 169.8781 343.9058 01.18595997    03

# Worst residual: 8.51 km
# MJD 58701.000000 (2019 Aug  6  0:00)
S511443
1 99999U 00000    19218.49918769  .00000000  00000-0  00000-0 0  3601
2 99999 024.7224 012.7619 8150846 170.1518 050.7956 01.18596336    03

# Worst residual: 8.78 km
# MJD 58702.000000 (2019 Aug  7  0:00)
S511443
1 99999U 00000    19219.49918769  .00000000  00000-0  00000-0 0  3602
2 99999 024.7211 012.6014 8151281 170.4277 117.6895 01.18589470    02

# Worst residual: 8.66 km
# MJD 58703.000000 (2019 Aug  8  0:00)
S511443
1 99999U 00000    19220.49918769  .00000000  00000-0  00000-0 0  3604
2 99999 024.7251 012.4388 8151254 170.7126 184.5654 01.18585995    08

# Worst residual: 9.04 km
# MJD 58704.000000 (2019 Aug  9  0:00)
S511443
1 99999U 00000    19221.49918769  .00000000  00000-0  00000-0 0  3605
2 99999 024.7269 012.2798 8151416 170.9923 251.4460 01.18588489    07

# Worst residual: 9.29 km
# MJD 58705.000000 (2019 Aug 10  0:00)
S511443
1 99999U 00000    19222.49918769  .00000000  00000-0  00000-0 0  3606
2 99999 024.7216 012.1198 8151556 171.2715 318.3330 01.18594900    04

# Worst residual: 7.59 km
# MJD 58706.000000 (2019 Aug 11  0:00)
S511443
1 99999U 00000    19223.49918769  .00000000  00000-0  00000-0 0  3607
2 99999 024.7266 011.9601 8151149 171.5450 025.2314 01.18600085    00

# Worst residual: 9.26 km
# MJD 58707.000000 (2019 Aug 12  0:00)
S511443
1 99999U 00000    19224.49918769  .00000000  00000-0  00000-0 0  3608
2 99999 024.7241 011.8018 8151405 171.8188 092.1218 01.18594763    01
